[{"OBJECT_NAME":"STARLINK-11471 [DTC]","OBJECT_ID":"2024-231H","EPOCH":"2025-08-20T10:13:21.287712","MEAN_MOTION":15.69797004,"ECCENTRICITY":0.0001124,"INCLINATION":53.1568,"RA_OF_ASC_NODE":13.2216,"ARG_OF_PERICENTER":117.5971,"MEAN_ANOMALY":242.5162,"EPHEMERIS_TYPE":0,"CLASSIFICATION_TYPE":"U","NORAD_CAT_ID":62225,"ELEMENT_SET_NO":999,"REV_AT_EPOCH":4149,"BSTAR":0.0026855,"MEAN_MOTION_DOT":0.00339659,"MEAN_MOTION_DDOT":0},{"OBJECT_NAME":"STARLINK-11475 [DTC]","OBJECT_ID":"2024-231J","EPOCH":"2025-08-20T08:48:43.878528","MEAN_MOTION":15.69751799,"ECCENTRICITY":9.63e-5,"INCLINATION":53.1574,"RA_OF_ASC_NODE":13.5534,"ARG_OF_PERICENTER":109.7684,"MEAN_ANOMALY":250.3437,"EPHEMERIS_TYPE":0,"CLASSIFICATION_TYPE":"U","NORAD_CAT_ID":62226,"ELEMENT_SET_NO":999,"REV_AT_EPOCH":4174,"BSTAR":0.0014503,"MEAN_MOTION_DOT":0.00179271,"MEAN_MOTION_DDOT":0},{"OBJECT_NAME":"STARLINK-11469 [DTC]","OBJECT_ID":"2024-231K","EPOCH":"2025-08-20T09:02:51.610272","MEAN_MOTION":15.69770653,"ECCENTRICITY":0.0001703,"INCLINATION":53.1568,"RA_OF_ASC_NODE":13.6199,"ARG_OF_PERICENTER":85.9587,"MEAN_ANOMALY":274.1625,"EPHEMERIS_TYPE":0,"CLASSIFICATION_TYPE":"U","NORAD_CAT_ID":62227,"ELEMENT_SET_NO":999,"REV_AT_EPOCH":4174,"BSTAR":0.0017153,"MEAN_MOTION_DOT":0.0021318,"MEAN_MOTION_DDOT":0},{"OBJECT_NAME":"STARLINK-11476 [DTC]","OBJECT_ID":"2024-231L","EPOCH":"2025-08-19T15:39:01.181664","MEAN_MOTION":15.6972483,"ECCENTRICITY":0.0001114,"INCLINATION":53.1571,"RA_OF_ASC_NODE":16.9104,"ARG_OF_PERICENTER":108.9571,"MEAN_ANOMALY":251.1567,"EPHEMERIS_TYPE":0,"CLASSIFICATION_TYPE":"U","NORAD_CAT_ID":62228,"ELEMENT_SET_NO":999,"REV_AT_EPOCH":4169,"BSTAR":0.0018533,"MEAN_MOTION_DOT":0.00230424,"MEAN_MOTION_DDOT":0},{"OBJECT_NAME":"STARLINK-11485 [DTC]","OBJECT_ID":"2024-231M","EPOCH":"2025-08-19T16:07:16.411872","MEAN_MOTION":15.69763124,"ECCENTRICITY":8.59e-5,"INCLINATION":53.1574,"RA_OF_ASC_NODE":17.0378,"ARG_OF_PERICENTER":105.9529,"MEAN_ANOMALY":254.1584,"EPHEMERIS_TYPE":0,"CLASSIFICATION_TYPE":"U","NORAD_CAT_ID":62229,"ELEMENT_SET_NO":999,"REV_AT_EPOCH":4168,"BSTAR":0.00099501,"MEAN_MOTION_DOT":0.00122011,"MEAN_MOTION_DDOT":0},{"OBJECT_NAME":"STARLINK-11481 [DTC]","OBJECT_ID":"2024-231N","EPOCH":"2025-08-20T12:55:40.333728","MEAN_MOTION":15.69878893,"ECCENTRICITY":0.00016,"INCLINATION":53.1559,"RA_OF_ASC_NODE":13.2185,"ARG_OF_PERICENTER":155.2248,"MEAN_ANOMALY":204.8847,"EPHEMERIS_TYPE":0,"CLASSIFICATION_TYPE":"U","NORAD_CAT_ID":62230,"ELEMENT_SET_NO":999,"REV_AT_EPOCH":4175,"BSTAR":0.0017,"MEAN_MOTION_DOT":0.00212199,"MEAN_MOTION_DDOT":0},{"OBJECT_NAME":"STARLINK-32650","OBJECT_ID":"2024-231P","EPOCH":"2025-08-19T20:27:59.403168","MEAN_MOTION":15.30208592,"ECCENTRICITY":8.82e-5,"INCLINATION":53.158,"RA_OF_ASC_NODE":77.3265,"ARG_OF_PERICENTER":85.4148,"MEAN_ANOMALY":274.6954,"EPHEMERIS_TYPE":0,"CLASSIFICATION_TYPE":"U","NORAD_CAT_ID":62231,"ELEMENT_SET_NO":999,"REV_AT_EPOCH":4083,"BSTAR":0.0006937,"MEAN_MOTION_DOT":0.00020248,"MEAN_MOTION_DDOT":0},{"OBJECT_NAME":"STARLINK-32636","OBJECT_ID":"2024-231Q","EPOCH":"2025-08-20T06:28:37.172352","MEAN_MOTION":15.30201116,"ECCENTRICITY":0.0001134,"INCLINATION":53.1571,"RA_OF_ASC_NODE":74.9565,"ARG_OF_PERICENTER":78.9028,"MEAN_ANOMALY":281.21,"EPHEMERIS_TYPE":0,"CLASSIFICATION_TYPE":"U","NORAD_CAT_ID":62232,"ELEMENT_SET_NO":999,"REV_AT_EPOCH":4087,"BSTAR":0.00082364,"MEAN_MOTION_DOT":0.00024115,"MEAN_MOTION_DDOT":0},{"OBJECT_NAME":"STARLINK-32643","OBJECT_ID":"2024-231R","EPOCH":"2025-08-20T12:37:34.870656","MEAN_MOTION":15.39644036,"ECCENTRICITY":0.000155,"INCLINATION":53.1581,"RA_OF_ASC_NODE":65.1888,"ARG_OF_PERICENTER":68.3137,"MEAN_ANOMALY":291.8033,"EPHEMERIS_TYPE":0,"CLASSIFICATION_TYPE":"U","NORAD_CAT_ID":62233,"ELEMENT_SET_NO":999,"REV_AT_EPOCH":4106,"BSTAR":0.00094276,"MEAN_MOTION_DOT":0.00037526,"MEAN_MOTION_DDOT":0},{"OBJECT_NAME":"STARLINK-32652","OBJECT_ID":"2024-231S","EPOCH":"2025-08-20T07:02:02.330592","MEAN_MOTION":15.30219698,"ECCENTRICITY":0.0001477,"INCLINATION":53.161,"RA_OF_ASC_NODE":75.0959,"ARG_OF_PERICENTER":92.2965,"MEAN_ANOMALY":267.8205,"EPHEMERIS_TYPE":0,"CLASSIFICATION_TYPE":"U","NORAD_CAT_ID":62234,"ELEMENT_SET_NO":999,"REV_AT_EPOCH":4090,"BSTAR":0.00063512,"MEAN_MOTION_DOT":0.0001851,"MEAN_MOTION_DDOT":0},{"OBJECT_NAME":"STARLINK-32631","OBJECT_ID":"2024-231T","EPOCH":"2025-08-20T12:50:30.207840","MEAN_MOTION":15.39642747,"ECCENTRICITY":8.6e-5,"INCLINATION":53.1602,"RA_OF_ASC_NODE":65.2439,"ARG_OF_PERICENTER":349.8305,"MEAN_ANOMALY":10.2682,"EPHEMERIS_TYPE":0,"CLASSIFICATION_TYPE":"U","NORAD_CAT_ID":62235,"ELEMENT_SET_NO":999,"REV_AT_EPOCH":4105,"BSTAR":0.0023406,"MEAN_MOTION_DOT":0.0009446,"MEAN_MOTION_DDOT":0},{"OBJECT_NAME":"STARLINK-32641","OBJECT_ID":"2024-231U","EPOCH":"2025-08-20T05:49:45.734880","MEAN_MOTION":15.39638103,"ECCENTRICITY":0.0001126,"INCLINATION":53.1578,"RA_OF_ASC_NODE":66.2597,"ARG_OF_PERICENTER":68.9122,"MEAN_ANOMALY":291.2003,"EPHEMERIS_TYPE":0,"CLASSIFICATION_TYPE":"U","NORAD_CAT_ID":62236,"ELEMENT_SET_NO":999,"REV_AT_EPOCH":4101,"BSTAR":0.00067173,"MEAN_MOTION_DOT":0.00026579,"MEAN_MOTION_DDOT":0},{"OBJECT_NAME":"STARLINK-32632","OBJECT_ID":"2024-231V","EPOCH":"2025-08-20T07:15:43.500384","MEAN_MOTION":15.30202001,"ECCENTRICITY":0.000111,"INCLINATION":53.1592,"RA_OF_ASC_NODE":75.1537,"ARG_OF_PERICENTER":94.5439,"MEAN_ANOMALY":265.5689,"EPHEMERIS_TYPE":0,"CLASSIFICATION_TYPE":"U","NORAD_CAT_ID":62262,"ELEMENT_SET_NO":999,"REV_AT_EPOCH":4089,"BSTAR":0.00086983,"MEAN_MOTION_DOT":0.00025493,"MEAN_MOTION_DDOT":0},{"OBJECT_NAME":"STARLINK-11496 [DTC]","OBJECT_ID":"2024-237A","EPOCH":"2025-08-20T06:59:09.181536","MEAN_MOTION":15.70851243,"ECCENTRICITY":0.0001527,"INCLINATION":43,"RA_OF_ASC_NODE":190.9233,"ARG_OF_PERICENTER":270.8194,"MEAN_ANOMALY":89.2499,"EPHEMERIS_TYPE":0,"CLASSIFICATION_TYPE":"U","NORAD_CAT_ID":62267,"ELEMENT_SET_NO":999,"REV_AT_EPOCH":4137,"BSTAR":0.001501,"MEAN_MOTION_DOT":0.00196873,"MEAN_MOTION_DDOT":0},{"OBJECT_NAME":"STARLINK-11501 [DTC]","OBJECT_ID":"2024-237B","EPOCH":"2025-08-19T22:35:28.797792","MEAN_MOTION":15.70985008,"ECCENTRICITY":0.0001706,"INCLINATION":42.999,"RA_OF_ASC_NODE":192.5813,"ARG_OF_PERICENTER":240.8719,"MEAN_ANOMALY":119.1978,"EPHEMERIS_TYPE":0,"CLASSIFICATION_TYPE":"U","NORAD_CAT_ID":62268,"ELEMENT_SET_NO":999,"REV_AT_EPOCH":4127,"BSTAR":0.0017534,"MEAN_MOTION_DOT":0.00232351,"MEAN_MOTION_DDOT":0},{"OBJECT_NAME":"STARLINK-11491 [DTC]","OBJECT_ID":"2024-237C","EPOCH":"2025-08-20T06:05:37.837824","MEAN_MOTION":15.70901882,"ECCENTRICITY":0.0002594,"INCLINATION":43.0028,"RA_OF_ASC_NODE":190.6221,"ARG_OF_PERICENTER":279.2227,"MEAN_ANOMALY":80.8347,"EPHEMERIS_TYPE":0,"CLASSIFICATION_TYPE":"U","NORAD_CAT_ID":62269,"ELEMENT_SET_NO":999,"REV_AT_EPOCH":4136,"BSTAR":0.0016085,"MEAN_MOTION_DOT":0.0021185,"MEAN_MOTION_DDOT":0},{"OBJECT_NAME":"STARLINK-11479 [DTC]","OBJECT_ID":"2024-237D","EPOCH":"2025-08-20T06:28:34.258080","MEAN_MOTION":15.70896308,"ECCENTRICITY":0.0001554,"INCLINATION":43.0008,"RA_OF_ASC_NODE":190.7483,"ARG_OF_PERICENTER":257.4616,"MEAN_ANOMALY":102.6078,"EPHEMERIS_TYPE":0,"CLASSIFICATION_TYPE":"U","NORAD_CAT_ID":62270,"ELEMENT_SET_NO":999,"REV_AT_EPOCH":4137,"BSTAR":0.0017884,"MEAN_MOTION_DOT":0.00236226,"MEAN_MOTION_DDOT":0},{"OBJECT_NAME":"STARLINK-11489 [DTC]","OBJECT_ID":"2024-237E","EPOCH":"2025-08-20T07:22:05.158560","MEAN_MOTION":15.7087838,"ECCENTRICITY":0.0001428,"INCLINATION":42.9997,"RA_OF_ASC_NODE":191.0492,"ARG_OF_PERICENTER":265.7326,"MEAN_ANOMALY":94.3378,"EPHEMERIS_TYPE":0,"CLASSIFICATION_TYPE":"U","NORAD_CAT_ID":62271,"ELEMENT_SET_NO":999,"REV_AT_EPOCH":4136,"BSTAR":0.0011488,"MEAN_MOTION_DOT":0.00149886,"MEAN_MOTION_DDOT":0},{"OBJECT_NAME":"STARLINK-11494 [DTC]","OBJECT_ID":"2024-237F","EPOCH":"2025-08-20T06:51:30.451104","MEAN_MOTION":15.70877137,"ECCENTRICITY":0.0001713,"INCLINATION":42.9995,"RA_OF_ASC_NODE":190.8782,"ARG_OF_PERICENTER":267.2491,"MEAN_ANOMALY":92.818,"EPHEMERIS_TYPE":0,"CLASSIFICATION_TYPE":"U","NORAD_CAT_ID":62272,"ELEMENT_SET_NO":999,"REV_AT_EPOCH":4132,"BSTAR":0.001285,"MEAN_MOTION_DOT":0.00168073,"MEAN_MOTION_DDOT":0},{"OBJECT_NAME":"STARLINK-11333 [DTC]","OBJECT_ID":"2024-237G","EPOCH":"2025-08-20T07:06:47.593152","MEAN_MOTION":15.70887114,"ECCENTRICITY":0.0001776,"INCLINATION":42.9996,"RA_OF_ASC_NODE":190.9631,"ARG_OF_PERICENTER":280.5492,"MEAN_ANOMALY":79.5175,"EPHEMERIS_TYPE":0,"CLASSIFICATION_TYPE":"U","NORAD_CAT_ID":62273,"ELEMENT_SET_NO":999,"REV_AT_EPOCH":4137,"BSTAR":0.00081247,"MEAN_MOTION_DOT":0.00105343,"MEAN_MOTION_DDOT":0},{"OBJECT_NAME":"STARLINK-11504 [DTC]","OBJECT_ID":"2024-237H","EPOCH":"2025-08-20T06:43:51.529728","MEAN_MOTION":15.70867408,"ECCENTRICITY":0.0001946,"INCLINATION":42.9983,"RA_OF_ASC_NODE":190.8354,"ARG_OF_PERICENTER":256.6665,"MEAN_ANOMALY":103.3986,"EPHEMERIS_TYPE":0,"CLASSIFICATION_TYPE":"U","NORAD_CAT_ID":62274,"ELEMENT_SET_NO":999,"REV_AT_EPOCH":4132,"BSTAR":0.001091,"MEAN_MOTION_DOT":0.00142127,"MEAN_MOTION_DDOT":0},{"OBJECT_NAME":"STARLINK-11495 [DTC]","OBJECT_ID":"2024-237J","EPOCH":"2025-08-20T07:29:43.869984","MEAN_MOTION":15.70879229,"ECCENTRICITY":0.0001739,"INCLINATION":42.9998,"RA_OF_ASC_NODE":191.0908,"ARG_OF_PERICENTER":273.7723,"MEAN_ANOMALY":86.2946,"EPHEMERIS_TYPE":0,"CLASSIFICATION_TYPE":"U","NORAD_CAT_ID":62275,"ELEMENT_SET_NO":999,"REV_AT_EPOCH":4131,"BSTAR":0.0012143,"MEAN_MOTION_DOT":0.00158634,"MEAN_MOTION_DDOT":0},{"OBJECT_NAME":"STARLINK-11498 [DTC]","OBJECT_ID":"2024-237K","EPOCH":"2025-08-20T07:52:28.973568","MEAN_MOTION":15.70880744,"ECCENTRICITY":0.0001988,"INCLINATION":43.0017,"RA_OF_ASC_NODE":190.3215,"ARG_OF_PERICENTER":266.5494,"MEAN_ANOMALY":93.5146,"EPHEMERIS_TYPE":0,"CLASSIFICATION_TYPE":"U","NORAD_CAT_ID":62276,"ELEMENT_SET_NO":999,"REV_AT_EPOCH":4137,"BSTAR":0.0012178,"MEAN_MOTION_DOT":0.00159113,"MEAN_MOTION_DDOT":0}]
